     2.100          NAVIGATION                              RINEX VERSION / TYPE
fic2rin                                 09/26/2011 00:10:48 PGM / RUN BY / DATE
                                                            END OF HEADER
20 11  9 25 21 59 44.0  .534593127668D-04  .568434188608D-12  .000000000000D+00
     .400000000000D+01  .471250000000D+02  .577059751141D-08  .858043474349D+00
     .243075191975D-05  .456310890149D-02  .321492552757D-05  .515358495522D+04
     .791840000000D+05 -.596046447754D-07 -.211660144787D+01  .108033418655D-06
     .931953477980D+00  .301750000000D+03  .126377684161D+01 -.902037573486D-08
     .186079179516D-09  .100000000000D+01  .165500000000D+04  .000000000000D+00
     .240000000000D+01  .000000000000D+00 -.745058059692D-08  .400000000000D+01
     .724560000000D+05  .400000000000D+01
25 11  9 25 21 59 44.0  .204271636903D-04  .181898940355D-11  .000000000000D+00
     .620000000000D+02  .393750000000D+02  .494056293713D-08  .691087028377D+00
     .181235373020D-05  .103141507134D-02  .283867120743D-05  .515358384323D+04
     .791840000000D+05 -.335276126862D-07  .105285294428D+01 -.111758708954D-07
     .965223579334D+00  .326250000000D+03  .993660598730D+00 -.858928634968D-08
     .312513017422D-09  .100000000000D+01  .165500000000D+04  .000000000000D+00
     .240000000000D+01  .000000000000D+00  .558793544769D-08  .620000000000D+02
     .729660000000D+05  .400000000000D+01
 2 11  9 25 21 59 44.0  .357857439667D-03  .181898940355D-11  .000000000000D+00
     .800000000000D+01  .637500000000D+02  .480948604868D-08 -.236230195374D+01
     .317394733429D-05  .104991088156D-01  .133346766233D-04  .515358536148D+04
     .791840000000D+05 -.782310962677D-07 -.314042420775D+01 -.178813934326D-06
     .939398766941D+00  .109687500000D+03 -.293057835671D+01 -.811712382507D-08
     .416088760338D-09  .100000000000D+01  .165500000000D+04  .000000000000D+00
     .240000000000D+01  .000000000000D+00 -.172294676304D-07  .800000000000D+01
     .754560000000D+05  .400000000000D+01
18 11  9 25 21 59 44.0  .159102026373D-03  .181898940355D-11  .000000000000D+00
     .120000000000D+02  .380625000000D+02  .593774733101D-08  .428663082327D+00
     .211223959923D-05  .127718712902D-01  .311248004436D-05  .515362465286D+04
     .791840000000D+05 -.130385160446D-06 -.206270875420D+01  .130385160446D-06
     .931649653302D+00  .304562500000D+03 -.221250266805D+01 -.921716964640D-08
     .328585115460D-10  .100000000000D+01  .165500000000D+04  .000000000000D+00
     .240000000000D+01  .000000000000D+00 -.107102096081D-07  .120000000000D+02
     .786360000000D+05  .400000000000D+01
 2 11  9 25 23 59 44.0  .357870943844D-03  .181898940355D-11  .000000000000D+00
     .130000000000D+02  .557187500000D+02  .493806283300D-08 -.131231391946D+01
     .281445682049D-05  .105002193013D-01  .124126672745D-04  .515358003426D+04
     .863840000000D+05  .596046447754D-07 -.314048304339D+01 -.158324837685D-06
     .939402016082D+00  .129250000000D+03 -.293032668213D+01 -.815748264904D-08
     .454661795632D-09  .100000000000D+01  .165500000000D+04  .000000000000D+00
     .240000000000D+01  .000000000000D+00 -.172294676304D-07  .130000000000D+02
     .792060000000D+05  .400000000000D+01
18 11  9 25 23 59 44.0  .159115064889D-03  .181898940355D-11  .000000000000D+00
     .130000000000D+02  .370937500000D+02  .595703384866D-08  .147887639428D+01
     .184774398804D-05  .127718684962D-01  .332854688168D-05  .515362481308D+04
     .863840000000D+05 -.320374965668D-06 -.206277547497D+01  .279396772385D-07
     .931650149231D+00  .304687500000D+03 -.221249439232D+01 -.912538010871D-08
     .110718897601D-09  .100000000000D+01  .165500000000D+04  .000000000000D+00
     .240000000000D+01  .000000000000D+00 -.107102096081D-07  .130000000000D+02
     .792060000000D+05  .400000000000D+01
20 11  9 25 23 59 44.0  .534630380571D-04  .568434188608D-12  .000000000000D+00
     .210000000000D+02  .572187500000D+02  .576202572579D-08  .190862465315D+01
     .279769301414D-05  .456273090094D-02  .339001417160D-05  .515358197403D+04
     .863840000000D+05 -.689178705215D-07 -.211666635170D+01 -.800937414169D-07
     .931955780613D+00  .296625000000D+03  .126344116481D+01 -.885608317713D-08
     .264296723305D-09  .100000000000D+01  .165500000000D+04  .000000000000D+00
     .240000000000D+01  .000000000000D+00 -.745058059692D-08  .210000000000D+02
     .792060000000D+05  .400000000000D+01
 1 11  9 26  0  0  0.0 -.407500192523D-05 -.159161572810D-11  .000000000000D+00
     .101000000000D+03  .342812500000D+02  .440625496678D-08  .259700816795D+01
     .170990824699D-05  .328007037751D-03  .133607536554D-04  .515367243195D+04
     .864000000000D+05  .186264514923D-07 -.313204006039D+01 -.651925802231D-07
     .960806077293D+00  .123593750000D+03  .162514239633D+01 -.791354391658D-08
     .371444043564D-09  .100000000000D+01  .165500000000D+04  .000000000000D+00
     .340000000000D+01  .630000000000D+02  .791624188423D-08  .101000000000D+03
     .792060000000D+05  .400000000000D+01
 3 11  9 26  0  0  0.0  .773114152253D-03  .500222085975D-11  .000000000000D+00
     .167000000000D+03 -.103468750000D+03  .555273129355D-08 -.112586934635D+01
    -.501424074173D-05  .148383022752D-01  .665336847305D-05  .515367371750D+04
     .864000000000D+05  .180676579475D-06  .198303394194D+01  .320374965668D-06
     .929358568520D+00  .232093750000D+03  .113794464961D+01 -.883286792440D-08
    -.463947896721D-09  .100000000000D+01  .165500000000D+04  .000000000000D+00
     .240000000000D+01  .000000000000D+00 -.465661287308D-08  .167000000000D+03
     .792060000000D+05  .400000000000D+01
 4 11  9 26  0  0  0.0  .242126174271D-03  .112549969344D-10  .000000000000D+00
     .410000000000D+02  .403437500000D+02  .490163274411D-08  .191925682576D+01
     .213831663132D-05  .983378721867D-02  .129621475935D-04  .515372239304D+04
     .864000000000D+05 -.305473804474D-06 -.312328795988D+01 -.819563865662D-07
     .938479514570D+00  .121125000000D+03  .768866824835D+00 -.819676999980D-08
     .361443627006D-09  .100000000000D+01  .165500000000D+04  .000000000000D+00
     .240000000000D+01  .000000000000D+00 -.651925802231D-08  .410000000000D+02
     .792060000000D+05  .400000000000D+01
 5 11  9 26  0  0  0.0 -.223289243877D-03 -.522959453519D-11  .000000000000D+00
     .390000000000D+02  .381562500000D+02  .536986653364D-08  .751721966226D+00
     .209175050259D-05  .244922679849D-02  .265613198280D-05  .515375516319D+04
     .864000000000D+05  .242143869400D-07 -.207831673691D+01 -.577419996262D-07
     .952865814389D+00  .319781250000D+03  .149715930075D+00 -.875286459194D-08
     .825034365993D-10  .100000000000D+01  .165500000000D+04  .000000000000D+00
     .240000000000D+01  .000000000000D+00 -.102445483208D-07  .390000000000D+02
     .792060000000D+05  .400000000000D+01
 6 11  9 26  0  0  0.0 -.623613595963D-04  .852651282912D-11  .000000000000D+00
     .900000000000D+02 -.114531250000D+03  .530379235281D-08  .855486081423D+00
    -.598095357418D-05  .667646911461D-02  .768154859543D-05  .515370622635D+04
     .864000000000D+05  .180676579475D-06  .205768951153D+01 -.130385160446D-06
     .936462991717D+00  .219062500000D+03 -.677660066348D+00 -.865678916144D-08
    -.476805575152D-09  .100000000000D+01  .165500000000D+04  .000000000000D+00
     .340000000000D+01  .000000000000D+00 -.465661287308D-08  .900000000000D+02
     .792060000000D+05  .400000000000D+01
 7 11  9 26  0  0  0.0  .285762362182D-04  .193267624127D-11  .000000000000D+00
     .620000000000D+02  .558125000000D+02  .382694512191D-08 -.279202389178D+01
     .293180346489D-05  .501985906158D-02  .132583081722D-04  .515364129639D+04
     .864000000000D+05 -.409781932831D-07  .290232428546D-01 -.353902578354D-07
     .975463975167D+00  .132437500000D+03 -.307017852425D+01 -.764353266953D-08
     .299298181256D-09  .100000000000D+01  .165500000000D+04  .000000000000D+00
     .240000000000D+01  .000000000000D+00 -.107102096081D-07  .620000000000D+02
     .792060000000D+05  .400000000000D+01
 8 11  9 26  0  0  0.0  .922894105315D-05  .113686837722D-12  .000000000000D+00
     .640000000000D+02  .691250000000D+02  .332013829709D-08  .299590658445D+01
     .354461371899D-05  .121143478900D-01  .126492232084D-04  .515375483322D+04
     .864000000000D+05 -.158324837685D-06  .107053368002D+00 -.633299350739D-07
     .997313796294D+00  .154750000000D+03 -.303106039764D+01 -.734244869960D-08
     .348943106310D-09  .100000000000D+01  .165500000000D+04  .000000000000D+00
     .240000000000D+01  .000000000000D+00 -.419095158577D-08  .640000000000D+02
     .792060000000D+05  .400000000000D+01
 9 11  9 26  0  0  0.0  .107849016786D-03  .238742359215D-11  .000000000000D+00
     .210000000000D+02  .703750000000D+02  .349621706005D-08  .279619802131D+01
     .371597707272D-05  .172250694595D-01  .131521373987D-04  .515366336632D+04
     .864000000000D+05  .143423676491D-06  .150249586498D-02  .521540641785D-07
     .984328783279D+00  .132906250000D+03  .160064035008D+01 -.727458873011D-08
     .220009164265D-09  .100000000000D+01  .165500000000D+04  .000000000000D+00
     .240000000000D+01  .000000000000D+00 -.558793544769D-08  .210000000000D+02
     .792060000000D+05  .400000000000D+01
10 11  9 26  0  0  0.0 -.143172219396D-04 -.125055521494D-11  .000000000000D+00
     .270000000000D+02  .398125000000D+02  .553523056457D-08  .100125517994D+01
     .232271850109D-05  .104710053420D-01  .326149165630D-05  .515363189697D+04
     .864000000000D+05  .316649675369D-07 -.205532531888D+01  .162050127983D-06
     .947773089342D+00  .309281250000D+03  .706738159853D+00 -.897573101808D-08
     .578595529398D-10  .100000000000D+01  .165500000000D+04  .000000000000D+00
     .240000000000D+01  .000000000000D+00 -.232830643654D-08  .270000000000D+02
     .792060000000D+05  .400000000000D+01
